COSMOS 2503             
1 40420U 15009A   26068.69626972  .00002817  00000+0  19590-3 0  9998
2 40420  97.8437 123.7175 0015321 225.7450 134.2520 15.06275973603958
STARLINK-30845          
1 58207U 23170B   26068.42956217  .00004349  00000+0  33222-3 0  9997
2 58207  43.0009 197.0622 0000937 266.2361  93.8374 15.03060829130240
